CCSDS_OMM_VERS = 2.0
CREATION_DATE  = 
ORIGINATOR     = 

OBJECT_NAME    = CZ-2C R/B
OBJECT_ID      = 2022-132E
CENTER_NAME    = EARTH
REF_FRAME      = TEME
TIME_SYSTEM    = UTC
MEAN_ELEMENT_THEORY = SGP/SGP4

EPOCH          = 2025-12-09T12:24:29.162016
MEAN_MOTION    = 15.54501286
ECCENTRICITY   = .0023456
INCLINATION    = 97.2948
RA_OF_ASC_NODE = 339.6541
ARG_OF_PERICENTER = 67.6851
MEAN_ANOMALY   = 292.6887

EPHEMERIS_TYPE = 0
CLASSIFICATION_TYPE = U
NORAD_CAT_ID   = 54039
ELEMENT_SET_NO = 999
REV_AT_EPOCH   = 17633
BSTAR          = .57764E-3
MEAN_MOTION_DOT = .3851E-3
MEAN_MOTION_DDOT = 0

CCSDS_OMM_VERS = 2.0
CREATION_DATE  = 
ORIGINATOR     = 

OBJECT_NAME    = GSLV R/B
OBJECT_ID      = 2022-138AN
CENTER_NAME    = EARTH
REF_FRAME      = TEME
TIME_SYSTEM    = UTC
MEAN_ELEMENT_THEORY = SGP/SGP4

EPOCH          = 2025-12-10T02:43:26.174496
MEAN_MOTION    = 14.96108080
ECCENTRICITY   = .00239699
INCLINATION    = 87.3826
RA_OF_ASC_NODE = 196.3538
ARG_OF_PERICENTER = 114.1360
MEAN_ANOMALY   = 246.2381

EPHEMERIS_TYPE = 0
CLASSIFICATION_TYPE = U
NORAD_CAT_ID   = 54149
ELEMENT_SET_NO = 999
REV_AT_EPOCH   = 17053
BSTAR          = .28986598E-3
MEAN_MOTION_DOT = .3305E-4
MEAN_MOTION_DDOT = 0

CCSDS_OMM_VERS = 2.0
CREATION_DATE  = 
ORIGINATOR     = 

OBJECT_NAME    = XRISM
OBJECT_ID      = 2023-137A
CENTER_NAME    = EARTH
REF_FRAME      = TEME
TIME_SYSTEM    = UTC
MEAN_ELEMENT_THEORY = SGP/SGP4

EPOCH          = 2025-12-09T20:38:43.886688
MEAN_MOTION    = 15.10294426
ECCENTRICITY   = .00076944
INCLINATION    = 31.0005
RA_OF_ASC_NODE = 144.1346
ARG_OF_PERICENTER = 216.2666
MEAN_ANOMALY   = 143.7451

EPHEMERIS_TYPE = 0
CLASSIFICATION_TYPE = U
NORAD_CAT_ID   = 57800
ELEMENT_SET_NO = 999
REV_AT_EPOCH   = 12419
BSTAR          = .43926607E-3
MEAN_MOTION_DOT = .7475E-4
MEAN_MOTION_DDOT = 0

CCSDS_OMM_VERS = 2.0
CREATION_DATE  = 
ORIGINATOR     = 

OBJECT_NAME    = ACS3
OBJECT_ID      = 2024-077B
CENTER_NAME    = EARTH
REF_FRAME      = TEME
TIME_SYSTEM    = UTC
MEAN_ELEMENT_THEORY = SGP/SGP4

EPOCH          = 2025-12-10T07:09:46.708992
MEAN_MOTION    = 13.85299593
ECCENTRICITY   = .0077886
INCLINATION    = 97.2703
RA_OF_ASC_NODE = 300.4495
ARG_OF_PERICENTER = 343.9746
MEAN_ANOMALY   = 15.8953

EPHEMERIS_TYPE = 0
CLASSIFICATION_TYPE = U
NORAD_CAT_ID   = 59588
ELEMENT_SET_NO = 999
REV_AT_EPOCH   = 8180
BSTAR          = .38774148E-1
MEAN_MOTION_DOT = .45347E-3
MEAN_MOTION_DDOT = 0

CCSDS_OMM_VERS = 2.0
CREATION_DATE  = 
ORIGINATOR     = 

OBJECT_NAME    = SZ-21 MODULE
OBJECT_ID      = 2025-246C
CENTER_NAME    = EARTH
REF_FRAME      = TEME
TIME_SYSTEM    = UTC
MEAN_ELEMENT_THEORY = SGP/SGP4

EPOCH          = 2025-12-10T04:10:45.552576
MEAN_MOTION    = 15.62287681
ECCENTRICITY   = .00063037
INCLINATION    = 41.4772
RA_OF_ASC_NODE = 31.6946
ARG_OF_PERICENTER = 246.4394
MEAN_ANOMALY   = 113.5783

EPHEMERIS_TYPE = 0
CLASSIFICATION_TYPE = U
NORAD_CAT_ID   = 66515
ELEMENT_SET_NO = 999
REV_AT_EPOCH   = 404
BSTAR          = .37412721E-3
MEAN_MOTION_DOT = .33821E-3
MEAN_MOTION_DDOT = 0

