CZ-2C R/B               
1 54039U 22132E   25343.51700419  .00038510  00000+0  57764-3 0  9993
2 54039  97.2948 339.6541 0023456  67.6851 292.6887 15.54501286176335
GSLV R/B                
1 54149U 22138AN  25344.11349739  .00003305  00000+0  28987-3 0  9991
2 54149  87.3826 196.3538 0023969 114.1360 246.2381 14.96108080170538
XRISM                   
1 57800U 23137A   25343.86023017  .00007475  00000+0  43927-3 0  9990
2 57800  31.0005 144.1346 0007694 216.2666 143.7451 15.10294426124195
ACS3                    
1 59588U 24077B   25344.29845728  .00045347  00000+0  38774-1 0  9990
2 59588  97.2703 300.4495 0077886 343.9746  15.8953 13.85299593 81804
SZ-21 MODULE            
1 66515U 25246C   25344.17413834  .00033821  00000+0  37413-3 0  9998
2 66515  41.4772  31.6946 0006303 246.4394 113.5783 15.62287681  4045
